ONEWEB-0435             
1 51632U 22012L   24318.57315836 -.00000598  00000+0 -17494-2 0  9990
2 51632  87.8899 151.8931 0001869  74.4434 285.6899 13.10371683133272
ONEWEB-0436             
1 51633U 22012M   24318.75613671  .00000092  00000+0  20309-3 0  9996
2 51633  87.9070 121.4788 0001569  82.5703 277.5607 13.17647813137240
ONEWEB-0439             
1 51635U 22012P   24318.55991368 -.00000376  00000+0 -11122-2 0  9997
2 51635  87.8896 151.8822 0001552  84.2864 275.8440 13.10368514134561
ONEWEB-0442             
1 51636U 22012Q   24318.52074250  .00000045  00000+0  83850-4 0  9997
2 51636  87.9072 121.5655 0001409 118.5072 241.6201 13.17647569137207
ONEWEB-0443             
1 51637U 22012R   24318.69201521  .00000019  00000+0  15794-4 0  9992
2 51637  87.9077 121.5421 0001880  98.7242 261.4102 13.17647804137274
ONEWEB-0444             
1 51638U 22012S   24318.77901205  .00000199  00000+0  53284-3 0  9992
2 51638  87.8891 151.8532 0001645  82.6996 277.4318 13.10369406133324
